ONEWEB-0233             
1 48795U 21045AE  24212.22205950  .00000017  00000+0  11545-4 0  9998
2 48795  87.9023  35.9427 0001480  85.3760 274.7540 13.15551172155085
ONEWEB-0190             
1 48796U 21045AF  24212.20860596  .00000153  00000+0  37335-3 0  9995
2 48796  87.9024  35.9053 0001321  53.5260 306.5992 13.15549814155162
ONEWEB-0236             
1 48797U 21045AG  24211.92181074 -.00000124  00000+0 -36299-3 0  9999
2 48797  87.9027  35.9576 0001643  88.9542 271.1777 13.15549705153893
ONEWEB-0248             
1 48798U 21045AH  24212.01054642 -.00000045  00000+0 -15384-3 0  9995
2 48798  87.9018  35.9271 0001002  84.7053 275.4191 13.15548974155184
ONEWEB-0225             
1 48799U 21045AJ  24211.88061509  .00000107  00000+0  24965-3 0  9992
2 48799  87.9022  35.9671 0001432  77.6260 282.5030 13.15548797154051
ONEWEB-0215             
1 48800U 21045AK  24211.92655810 -.00000076  00000+0 -23592-3 0  9996
2 48800  87.9017  35.9296 0001015  67.7003 292.4235 13.15549966153935
ONEWEB-0216             
1 48801U 21045AL  24212.01213210  .00000008  00000+0 -11979-4 0  9993
2 48801  87.9018  35.9540 0001942  80.2819 279.8531 13.15548999155073
ONEWEB-0239             
1 48802U 21045AM  24212.01687896 -.00000017  00000+0 -77943-4 0  9993
2 48802  87.9028  35.9326 0000828  79.0477 281.0747 13.15549203155135
